STARLINK-36078          
1 67050U 25294W   25356.58335648 -.01952536  00000+0 -10586-1 0  9996
2 67050  43.0000 121.8121 0001367 268.4246  16.8332 15.82170722  1809
STARLINK-35706          
1 67051U 25294X   25356.58335648 -.01952886  00000+0 -10596-1 0  9996
2 67051  43.0000 121.8058 0001482 272.3002  15.3607 15.82154716  1894
STARLINK-35720          
1 67052U 25294Y   25356.58335648 -.01949444  00000+0 -10578-1 0  9993
2 67052  43.0000 121.8010 0001396 274.6950  14.9704 15.82148456  1880
STARLINK-35739          
1 67053U 25294Z   25356.58335648 -.01953488  00000+0 -10608-1 0  9991
2 67053  43.0001 121.7951 0001409 273.5647  18.3499 15.82138532  1536
STARLINK-35754          
1 67054U 25294AA  25356.58335648 -.01944125  00000+0 -10563-1 0  9990
2 67054  43.0001 121.7889 0001402 274.4624  19.9075 15.82111968  1693
STARLINK-35790          
1 67055U 25294AB  25356.58335648 -.01948109  00000+0 -10594-1 0  9991
2 67055  42.9998 121.7825 0001401 270.8045  25.9240 15.82100121  1895
STARLINK-36143          
1 67056U 25294AC  25356.58335648 -.01950830  00000+0 -10619-1 0  9994
2 67056  42.9999 121.7667 0001421 277.9721  24.9625 15.82083399  1895
STARLINK-36141          
1 67057U 25294AD  25356.58335648 -.01952434  00000+0 -10624-1 0  9993
2 67057  42.9998 121.7726 0001507 275.1264  25.6595 15.82093032  1808
STARLINK-35767          
1 67058U 25294AE  25356.58335648 -.01946154  00000+0 -10585-1 0  9992
2 67058  43.0000 121.7772 0001447 273.8950  24.9074 15.82092953  1698
HULIANWANG DIGUI-119    
1 67059U 25295A   25356.58944399  .00000044  00000+0  86912-4 0  9999
2 67059  50.0051 330.6834 0014026 281.1325  78.8012 14.24615369  1527
HULIANWANG DIGUI-120    
1 67060U 25295B   25356.51595248 -.00000242  00000+0 -34314-4 0  9990
2 67060  50.0058 330.9619 0013184 281.8733  78.0702 14.25710367  1516
HULIANWANG DIGUI-121    
1 67061U 25295C   25356.58669000 -.00000213  00000+0 -22496-4 0  9992
2 67061  50.0023 330.6581 0013383 280.4171  79.5234 14.25038881  1527
