CCSDS_OMM_VERS = 2.0
CREATION_DATE  = 
ORIGINATOR     = 

OBJECT_NAME    = STARLINK-36078
OBJECT_ID      = 2025-294W
CENTER_NAME    = EARTH
REF_FRAME      = TEME
TIME_SYSTEM    = UTC
MEAN_ELEMENT_THEORY = SGP/SGP4

EPOCH          = 2025-12-22T14:00:01.999872
MEAN_MOTION    = 15.82170722
ECCENTRICITY   = .00013674
INCLINATION    = 43.0000
RA_OF_ASC_NODE = 121.8121
ARG_OF_PERICENTER = 268.4246
MEAN_ANOMALY   = 16.8332

EPHEMERIS_TYPE = 0
CLASSIFICATION_TYPE = U
NORAD_CAT_ID   = 67050
ELEMENT_SET_NO = 999
REV_AT_EPOCH   = 180
BSTAR          = -.10586083E-1
MEAN_MOTION_DOT = -.1952536E-1
MEAN_MOTION_DDOT = 0

CCSDS_OMM_VERS = 2.0
CREATION_DATE  = 
ORIGINATOR     = 

OBJECT_NAME    = STARLINK-35706
OBJECT_ID      = 2025-294X
CENTER_NAME    = EARTH
REF_FRAME      = TEME
TIME_SYSTEM    = UTC
MEAN_ELEMENT_THEORY = SGP/SGP4

EPOCH          = 2025-12-22T14:00:01.999872
MEAN_MOTION    = 15.82154716
ECCENTRICITY   = .00014824
INCLINATION    = 43.0000
RA_OF_ASC_NODE = 121.8058
ARG_OF_PERICENTER = 272.3002
MEAN_ANOMALY   = 15.3607

EPHEMERIS_TYPE = 0
CLASSIFICATION_TYPE = U
NORAD_CAT_ID   = 67051
ELEMENT_SET_NO = 999
REV_AT_EPOCH   = 189
BSTAR          = -.1059558E-1
MEAN_MOTION_DOT = -.1952886E-1
MEAN_MOTION_DDOT = 0

CCSDS_OMM_VERS = 2.0
CREATION_DATE  = 
ORIGINATOR     = 

OBJECT_NAME    = STARLINK-35720
OBJECT_ID      = 2025-294Y
CENTER_NAME    = EARTH
REF_FRAME      = TEME
TIME_SYSTEM    = UTC
MEAN_ELEMENT_THEORY = SGP/SGP4

EPOCH          = 2025-12-22T14:00:01.999872
MEAN_MOTION    = 15.82148456
ECCENTRICITY   = .00013962
INCLINATION    = 43.0000
RA_OF_ASC_NODE = 121.8010
ARG_OF_PERICENTER = 274.6950
MEAN_ANOMALY   = 14.9704

EPHEMERIS_TYPE = 0
CLASSIFICATION_TYPE = U
NORAD_CAT_ID   = 67052
ELEMENT_SET_NO = 999
REV_AT_EPOCH   = 188
BSTAR          = -.10577708E-1
MEAN_MOTION_DOT = -.1949444E-1
MEAN_MOTION_DDOT = 0

CCSDS_OMM_VERS = 2.0
CREATION_DATE  = 
ORIGINATOR     = 

OBJECT_NAME    = STARLINK-35739
OBJECT_ID      = 2025-294Z
CENTER_NAME    = EARTH
REF_FRAME      = TEME
TIME_SYSTEM    = UTC
MEAN_ELEMENT_THEORY = SGP/SGP4

EPOCH          = 2025-12-22T14:00:01.999872
MEAN_MOTION    = 15.82138532
ECCENTRICITY   = .00014095
INCLINATION    = 43.0001
RA_OF_ASC_NODE = 121.7951
ARG_OF_PERICENTER = 273.5647
MEAN_ANOMALY   = 18.3499

EPHEMERIS_TYPE = 0
CLASSIFICATION_TYPE = U
NORAD_CAT_ID   = 67053
ELEMENT_SET_NO = 999
REV_AT_EPOCH   = 153
BSTAR          = -.10607986E-1
MEAN_MOTION_DOT = -.1953488E-1
MEAN_MOTION_DDOT = 0

CCSDS_OMM_VERS = 2.0
CREATION_DATE  = 
ORIGINATOR     = 

OBJECT_NAME    = STARLINK-35754
OBJECT_ID      = 2025-294AA
CENTER_NAME    = EARTH
REF_FRAME      = TEME
TIME_SYSTEM    = UTC
MEAN_ELEMENT_THEORY = SGP/SGP4

EPOCH          = 2025-12-22T14:00:01.999872
MEAN_MOTION    = 15.82111968
ECCENTRICITY   = .00014028
INCLINATION    = 43.0001
RA_OF_ASC_NODE = 121.7889
ARG_OF_PERICENTER = 274.4624
MEAN_ANOMALY   = 19.9075

EPHEMERIS_TYPE = 0
CLASSIFICATION_TYPE = U
NORAD_CAT_ID   = 67054
ELEMENT_SET_NO = 999
REV_AT_EPOCH   = 169
BSTAR          = -.10562611E-1
MEAN_MOTION_DOT = -.1944125E-1
MEAN_MOTION_DDOT = 0

CCSDS_OMM_VERS = 2.0
CREATION_DATE  = 
ORIGINATOR     = 

OBJECT_NAME    = STARLINK-35790
OBJECT_ID      = 2025-294AB
CENTER_NAME    = EARTH
REF_FRAME      = TEME
TIME_SYSTEM    = UTC
MEAN_ELEMENT_THEORY = SGP/SGP4

EPOCH          = 2025-12-22T14:00:01.999872
MEAN_MOTION    = 15.82100121
ECCENTRICITY   = .00014019
INCLINATION    = 42.9998
RA_OF_ASC_NODE = 121.7825
ARG_OF_PERICENTER = 270.8045
MEAN_ANOMALY   = 25.9240

EPHEMERIS_TYPE = 0
CLASSIFICATION_TYPE = U
NORAD_CAT_ID   = 67055
ELEMENT_SET_NO = 999
REV_AT_EPOCH   = 189
BSTAR          = -.10593573E-1
MEAN_MOTION_DOT = -.1948109E-1
MEAN_MOTION_DDOT = 0

CCSDS_OMM_VERS = 2.0
CREATION_DATE  = 
ORIGINATOR     = 

OBJECT_NAME    = STARLINK-36143
OBJECT_ID      = 2025-294AC
CENTER_NAME    = EARTH
REF_FRAME      = TEME
TIME_SYSTEM    = UTC
MEAN_ELEMENT_THEORY = SGP/SGP4

EPOCH          = 2025-12-22T14:00:01.999872
MEAN_MOTION    = 15.82083399
ECCENTRICITY   = .00014213
INCLINATION    = 42.9999
RA_OF_ASC_NODE = 121.7667
ARG_OF_PERICENTER = 277.9721
MEAN_ANOMALY   = 24.9625

EPHEMERIS_TYPE = 0
CLASSIFICATION_TYPE = U
NORAD_CAT_ID   = 67056
ELEMENT_SET_NO = 999
REV_AT_EPOCH   = 189
BSTAR          = -.10618974E-1
MEAN_MOTION_DOT = -.195083E-1
MEAN_MOTION_DDOT = 0

CCSDS_OMM_VERS = 2.0
CREATION_DATE  = 
ORIGINATOR     = 

OBJECT_NAME    = STARLINK-36141
OBJECT_ID      = 2025-294AD
CENTER_NAME    = EARTH
REF_FRAME      = TEME
TIME_SYSTEM    = UTC
MEAN_ELEMENT_THEORY = SGP/SGP4

EPOCH          = 2025-12-22T14:00:01.999872
MEAN_MOTION    = 15.82093032
ECCENTRICITY   = .00015073
INCLINATION    = 42.9998
RA_OF_ASC_NODE = 121.7726
ARG_OF_PERICENTER = 275.1264
MEAN_ANOMALY   = 25.6595

EPHEMERIS_TYPE = 0
CLASSIFICATION_TYPE = U
NORAD_CAT_ID   = 67057
ELEMENT_SET_NO = 999
REV_AT_EPOCH   = 180
BSTAR          = -.10623644E-1
MEAN_MOTION_DOT = -.1952434E-1
MEAN_MOTION_DDOT = 0

CCSDS_OMM_VERS = 2.0
CREATION_DATE  = 
ORIGINATOR     = 

OBJECT_NAME    = STARLINK-35767
OBJECT_ID      = 2025-294AE
CENTER_NAME    = EARTH
REF_FRAME      = TEME
TIME_SYSTEM    = UTC
MEAN_ELEMENT_THEORY = SGP/SGP4

EPOCH          = 2025-12-22T14:00:01.999872
MEAN_MOTION    = 15.82092953
ECCENTRICITY   = .00014471
INCLINATION    = 43.0000
RA_OF_ASC_NODE = 121.7772
ARG_OF_PERICENTER = 273.8950
MEAN_ANOMALY   = 24.9074

EPHEMERIS_TYPE = 0
CLASSIFICATION_TYPE = U
NORAD_CAT_ID   = 67058
ELEMENT_SET_NO = 999
REV_AT_EPOCH   = 169
BSTAR          = -.10584599E-1
MEAN_MOTION_DOT = -.1946154E-1
MEAN_MOTION_DDOT = 0

CCSDS_OMM_VERS = 2.0
CREATION_DATE  = 
ORIGINATOR     = 

OBJECT_NAME    = HULIANWANG DIGUI-119
OBJECT_ID      = 2025-295A
CENTER_NAME    = EARTH
REF_FRAME      = TEME
TIME_SYSTEM    = UTC
MEAN_ELEMENT_THEORY = SGP/SGP4

EPOCH          = 2025-12-22T14:08:47.960736
MEAN_MOTION    = 14.24615369
ECCENTRICITY   = .00140264
INCLINATION    = 50.0051
RA_OF_ASC_NODE = 330.6834
ARG_OF_PERICENTER = 281.1325
MEAN_ANOMALY   = 78.8012

EPHEMERIS_TYPE = 0
CLASSIFICATION_TYPE = U
NORAD_CAT_ID   = 67059
ELEMENT_SET_NO = 999
REV_AT_EPOCH   = 152
BSTAR          = .86912074E-4
MEAN_MOTION_DOT = .44E-6
MEAN_MOTION_DDOT = 0

CCSDS_OMM_VERS = 2.0
CREATION_DATE  = 
ORIGINATOR     = 

OBJECT_NAME    = HULIANWANG DIGUI-120
OBJECT_ID      = 2025-295B
CENTER_NAME    = EARTH
REF_FRAME      = TEME
TIME_SYSTEM    = UTC
MEAN_ELEMENT_THEORY = SGP/SGP4

EPOCH          = 2025-12-22T12:22:58.294272
MEAN_MOTION    = 14.25710367
ECCENTRICITY   = .0013184
INCLINATION    = 50.0058
RA_OF_ASC_NODE = 330.9619
ARG_OF_PERICENTER = 281.8733
MEAN_ANOMALY   = 78.0702

EPHEMERIS_TYPE = 0
CLASSIFICATION_TYPE = U
NORAD_CAT_ID   = 67060
ELEMENT_SET_NO = 999
REV_AT_EPOCH   = 151
BSTAR          = -.34313753E-4
MEAN_MOTION_DOT = -.242E-5
MEAN_MOTION_DDOT = 0

CCSDS_OMM_VERS = 2.0
CREATION_DATE  = 
ORIGINATOR     = 

OBJECT_NAME    = HULIANWANG DIGUI-121
OBJECT_ID      = 2025-295C
CENTER_NAME    = EARTH
REF_FRAME      = TEME
TIME_SYSTEM    = UTC
MEAN_ELEMENT_THEORY = SGP/SGP4

EPOCH          = 2025-12-22T14:04:50.016000
MEAN_MOTION    = 14.25038881
ECCENTRICITY   = .00133838
INCLINATION    = 50.0023
RA_OF_ASC_NODE = 330.6581
ARG_OF_PERICENTER = 280.4171
MEAN_ANOMALY   = 79.5234

EPHEMERIS_TYPE = 0
CLASSIFICATION_TYPE = U
NORAD_CAT_ID   = 67061
ELEMENT_SET_NO = 999
REV_AT_EPOCH   = 152
BSTAR          = -.2249596E-4
MEAN_MOTION_DOT = -.213E-5
MEAN_MOTION_DDOT = 0

